{
  "type": "FeatureCollection",
  "features": [
    {
      "type": "Feature",
      "properties": {
        "norad_id": 38809,
        "name": "FENGYUN 1C DEB",
        "group": "fengyun-1c-debris",
        "lat": 51.609487477585326,
        "lon": -20.901502226497307,
        "alt_km": 753.8093624905732,
        "timestamp": "2025-12-05T16:54:14.936617+00:00",
        "meta_object_name": "FENGYUN 1C DEB",
        "meta_object_id": "1999-025EUZ",
        "meta_epoch": "2025-12-05T06:30:23.152320",
        "meta_mean_motion": 14.18136991,
        "meta_eccentricity": 0.02231713,
        "meta_inclination": 98.5894,
        "meta_ra_of_asc_node": 349.676,
        "meta_arg_of_pericenter": 349.5929,
        "meta_mean_anomaly": 10.0666,
        "meta_ephemeris_type": 0,
        "meta_classification_type": "U",
        "meta_norad_cat_id": 38809,
        "meta_element_set_no": 999,
        "meta_rev_at_epoch": 69100,
        "meta_bstar": 0.0011831883,
        "meta_mean_motion_dot": 3.063e-05,
        "meta_mean_motion_ddot": 0,
        "tle_line1": "1 38809U 99025EUZ 25339.27110130  .00003063  00000+0  11832-2 0  9998",
        "tle_line2": "2 38809  98.5894 349.6760 0223171 349.5929  10.0666 14.18136991691003"
      },
      "geometry": {
        "type": "Point",
        "coordinates": [
          -20.901502226497307,
          51.609487477585326
        ]
      }
    },
    {
      "type": "Feature",
      "properties": {
        "norad_id": 38813,
        "name": "FENGYUN 1C DEB",
        "group": "fengyun-1c-debris",
        "lat": 74.79365923430312,
        "lon": -166.2287074681652,
        "alt_km": 813.820531886543,
        "timestamp": "2025-12-05T16:54:14.936626+00:00",
        "meta_object_name": "FENGYUN 1C DEB",
        "meta_object_id": "1999-025EVD",
        "meta_epoch": "2025-12-05T06:16:48.425376",
        "meta_mean_motion": 14.2013827,
        "meta_eccentricity": 0.00062828,
        "meta_inclination": 99.3464,
        "meta_ra_of_asc_node": 336.01,
        "meta_arg_of_pericenter": 134.0016,
        "meta_mean_anomaly": 226.1677,
        "meta_ephemeris_type": 0,
        "meta_classification_type": "U",
        "meta_norad_cat_id": 38813,
        "meta_element_set_no": 999,
        "meta_rev_at_epoch": 48144,
        "meta_bstar": 0.00085859409,
        "meta_mean_motion_dot": 1.783e-05,
        "meta_mean_motion_ddot": 0,
        "tle_line1": "1 38813U 99025EVD 25339.26167159  .00001783  00000+0  85859-3 0  9993",
        "tle_line2": "2 38813  99.3464 336.0100 0006282 134.0016 226.1677 14.20138270481446"
      },
      "geometry": {
        "type": "Point",
        "coordinates": [
          -166.2287074681652,
          74.79365923430312
        ]
      }
    },
    {
      "type": "Feature",
      "properties": {
        "norad_id": 38817,
        "name": "FENGYUN 1C DEB",
        "group": "fengyun-1c-debris",
        "lat": -56.95101590138867,
        "lon": 17.466783410125334,
        "alt_km": 1266.40382540066,
        "timestamp": "2025-12-05T16:54:14.936635+00:00",
        "meta_object_name": "FENGYUN 1C DEB",
        "meta_object_id": "1999-025EVH",
        "meta_epoch": "2025-12-04T20:17:46.492800",
        "meta_mean_motion": 13.57650591,
        "meta_eccentricity": 0.0290878,
        "meta_inclination": 98.6006,
        "meta_ra_of_asc_node": 210.1644,
        "meta_arg_of_pericenter": 64.8865,
        "meta_mean_anomaly": 298.2158,
        "meta_ephemeris_type": 0,
        "meta_classification_type": "U",
        "meta_norad_cat_id": 38817,
        "meta_element_set_no": 999,
        "meta_rev_at_epoch": 65727,
        "meta_bstar": 0.0030312,
        "meta_mean_motion_dot": 2.834e-05,
        "meta_mean_motion_ddot": 0,
        "tle_line1": "1 38817U 99025EVH 25338.84567700  .00002834  00000+0  30312-2 0  9997",
        "tle_line2": "2 38817  98.6006 210.1644 0290878  64.8865 298.2158 13.57650591657271"
      },
      "geometry": {
        "type": "Point",
        "coordinates": [
          17.466783410125334,
          -56.95101590138867
        ]
      }
    },
    {
      "type": "Feature",
      "properties": {
        "norad_id": 38818,
        "name": "FENGYUN 1C DEB",
        "group": "fengyun-1c-debris",
        "lat": -68.68221587725932,
        "lon": -165.75195743193407,
        "alt_km": 807.9489983731419,
        "timestamp": "2025-12-05T16:54:14.936644+00:00",
        "meta_object_name": "FENGYUN 1C DEB",
        "meta_object_id": "1999-025EVJ",
        "meta_epoch": "2025-11-27T09:30:24.153696",
        "meta_mean_motion": 14.39418793,
        "meta_eccentricity": 0.00885007,
        "meta_inclination": 98.3025,
        "meta_ra_of_asc_node": 28.1739,
        "meta_arg_of_pericenter": 145.1281,
        "meta_mean_anomaly": 276.4662,
        "meta_ephemeris_type": 0,
        "meta_classification_type": "U",
        "meta_norad_cat_id": 38818,
        "meta_element_set_no": 999,
        "meta_rev_at_epoch": 67027,
        "meta_bstar": 0.00050962146,
        "meta_mean_motion_dot": 1.618e-05,
        "meta_mean_motion_ddot": 0,
        "tle_line1": "1 38818U 99025EVJ 25331.39611289  .00001618  00000+0  50962-3 0  9996",
        "tle_line2": "2 38818  98.3025  28.1739 0088500 145.1281 276.4662 14.39418793670274"
      },
      "geometry": {
        "type": "Point",
        "coordinates": [
          -165.75195743193407,
          -68.68221587725932
        ]
      }
    },
    {
      "type": "Feature",
      "properties": {
        "norad_id": 38819,
        "name": "FENGYUN 1C DEB",
        "group": "fengyun-1c-debris",
        "lat": -0.37149147505364283,
        "lon": -27.23540464214184,
        "alt_km": 877.1138342978975,
        "timestamp": "2025-12-05T16:54:14.936653+00:00",
        "meta_object_name": "FENGYUN 1C DEB",
        "meta_object_id": "1999-025EVK",
        "meta_epoch": "2025-12-04T05:27:10.386720",
        "meta_mean_motion": 14.1934854,
        "meta_eccentricity": 0.00794,
        "meta_inclination": 98.6177,
        "meta_ra_of_asc_node": 331.2713,
        "meta_arg_of_pericenter": 219.1984,
        "meta_mean_anomaly": 156.6106,
        "meta_ephemeris_type": 0,
        "meta_classification_type": "U",
        "meta_norad_cat_id": 38819,
        "meta_element_set_no": 999,
        "meta_rev_at_epoch": 63357,
        "meta_bstar": 0.00075514,
        "meta_mean_motion_dot": 1.594e-05,
        "meta_mean_motion_ddot": 0,
        "tle_line1": "1 38819U 99025EVK 25338.22720355  .00001594  00000+0  75514-3 0  9994",
        "tle_line2": "2 38819  98.6177 331.2713 0079400 219.1984 156.6106 14.19348540633571"
      },
      "geometry": {
        "type": "Point",
        "coordinates": [
          -27.23540464214184,
          -0.37149147505364283
        ]
      }
    },
    {
      "type": "Feature",
      "properties": {
        "norad_id": 38824,
        "name": "FENGYUN 1C DEB",
        "group": "fengyun-1c-debris",
        "lat": 20.24371182409396,
        "lon": -63.543368509962185,
        "alt_km": 812.0510058336122,
        "timestamp": "2025-12-05T16:54:14.936662+00:00",
        "meta_object_name": "FENGYUN 1C DEB",
        "meta_object_id": "1999-025EVQ",
        "meta_epoch": "2025-11-20T14:24:21.461760",
        "meta_mean_motion": 14.13875773,
        "meta_eccentricity": 0.00960414,
        "meta_inclination": 99.2955,
        "meta_ra_of_asc_node": 97.2934,
        "meta_arg_of_pericenter": 263.2679,
        "meta_mean_anomaly": 95.7556,
        "meta_ephemeris_type": 0,
        "meta_classification_type": "U",
        "meta_norad_cat_id": 38824,
        "meta_element_set_no": 999,
        "meta_rev_at_epoch": 68824,
        "meta_bstar": 0.0027703315,
        "meta_mean_motion_dot": 5.443e-05,
        "meta_mean_motion_ddot": 0,
        "tle_line1": "1 38824U 99025EVQ 25324.60024840  .00005443  00000+0  27703-2 0  9996",
        "tle_line2": "2 38824  99.2955  97.2934 0096041 263.2679  95.7556 14.13875773688246"
      },
      "geometry": {
        "type": "Point",
        "coordinates": [
          -63.543368509962185,
          20.24371182409396
        ]
      }
    },
    {
      "type": "Feature",
      "properties": {
        "norad_id": 38827,
        "name": "FENGYUN 1C DEB",
        "group": "fengyun-1c-debris",
        "lat": -42.94681511498447,
        "lon": 10.744323465781752,
        "alt_km": 640.4068046623488,
        "timestamp": "2025-12-05T16:54:14.936671+00:00",
        "meta_object_name": "FENGYUN 1C DEB",
        "meta_object_id": "1999-025EVT",
        "meta_epoch": "2025-12-02T06:58:24.042720",
        "meta_mean_motion": 14.3273979,
        "meta_eccentricity": 0.02171,
        "meta_inclination": 98.388,
        "meta_ra_of_asc_node": 359.5433,
        "meta_arg_of_pericenter": 344.0092,
        "meta_mean_anomaly": 15.4311,
        "meta_ephemeris_type": 0,
        "meta_classification_type": "U",
        "meta_norad_cat_id": 38827,
        "meta_element_set_no": 999,
        "meta_rev_at_epoch": 60910,
        "meta_bstar": 0.0011390004,
        "meta_mean_motion_dot": 3.982e-05,
        "meta_mean_motion_ddot": 0,
        "tle_line1": "1 38827U 99025EVT 25336.29055605  .00003982  00000+0  11390-2 0  9991",
        "tle_line2": "2 38827  98.3880 359.5433 0217100 344.0092  15.4311 14.32739790609107"
      },
      "geometry": {
        "type": "Point",
        "coordinates": [
          10.744323465781752,
          -42.94681511498447
        ]
      }
    }
  ]
}